ORBCOMM FM20            
1 25416U 98046D   25048.96074054  .00002565  00000+0  90882-3 0  9996
2 25416  44.9949  25.7367 0002165 321.0651  39.0041 14.36765828387118
ORBCOMM FM16            
1 25417U 98046E   25048.95316582  .00003767  00000+0  12726-2 0  9996
2 25417  44.9946  18.8435 0004344  27.0604 333.0470 14.38284499387088
ORBCOMM FM15            
1 25418U 98046F   25049.24807338  .00003428  00000+0  11701-2 0  9990
2 25418  44.9977  22.2434 0003827  26.5775 333.5269 14.37959415387299
ORBCOMM FM14            
1 25419U 98046G   25049.22480713  .00003419  00000+0  11597-2 0  9996
2 25419  44.9967  20.9157 0003325   9.0474 351.0434 14.38273512387300
ORBCOMM FM13            
1 25420U 98046H   25048.68395383  .00002807  00000+0  98202-3 0  9994
2 25420  44.9980  30.3452 0005262  12.0959 348.0014 14.37159044386046
ORBCOMM FM21            
1 25475U 98053A   25049.15205963  .00002084  00000+0  74517-3 0  9999
2 25475  45.0072 113.0414 0002597 278.6184  81.4369 14.36905544380458
ORBCOMM FM22            
1 25476U 98053B   25049.20106914  .00002496  00000+0  86764-3 0  9996
2 25476  45.0065 108.5692 0003938 304.1543  55.8931 14.37796768380505
ORBCOMM FM23            
1 25477U 98053C   25048.88808584  .00002273  00000+0  80663-3 0  9997
2 25477  45.0073 116.5625 0003242 292.0425  68.0078 14.37033294380542
